KAITUO 1B               
1 40912U 15049P   17294.53942553  .00001758  00000-0  89369-4 0  9994
2 40912  97.4523 300.3617 0016993 118.3408 358.8354 15.18065476115456
TIANWANG 1C (TW-1C)     
1 40926U 15051B   17294.47837640  .00009091  00000-0  19423-3 0  9996
2 40926  97.2173 333.1353 0012996  73.5823  34.4729 15.44979427116401
TIANWANG 1B (TW-1B)     
1 40927U 15051C   17294.58327934  .00009019  00000-0  20026-3 0  9990
2 40927  97.2267 333.1990 0013170  82.9878  68.9610 15.43838020116359
TIANWANG 1A (TW-1A)     
1 40928U 15051D   17294.49486481  .00004095  00000-0  11443-3 0  9996
2 40928  97.2163 328.0308 0014370 101.0723   5.6219 15.37153420116097
LAPAN-A2 (IO-86)        
1 40931U 15052B   17294.42121323  .00000731  00000-0  12895-4 0  9991
2 40931   5.9994  52.6533 0012873 233.1741 126.7205 14.76549830111655
LQSAT                   
1 40958U 15057A   17294.46312990  .00000062  00000-0  17421-4 0  9998
2 40958  97.9680   7.5080 0018969  25.8398 334.3754 14.72994176109701
CHUBUSAT-2              
1 41338U 16012B   17294.53915551  .00000578  00000-0  38625-4 0  9994
2 41338  31.0044  29.7388 0013923 230.7926 129.1473 14.99841576 91974
CHUBUSAT-3              
1 41339U 16012C   17294.45033389  .00000532  00000-0  34828-4 0  9997
2 41339  31.0110  29.2486 0013512 236.7139 123.2203 15.00039438 91941
OUFTI-1                 
1 41458U 16025C   17294.56768496  .00001257  00000-0  71087-4 0  9992
2 41458  98.1738 339.3471 0171299 226.7507 131.9315 15.03757376 81565
E-ST@R-II               
1 41459U 16025D   17294.53689524  .00002960  00000-0  16049-3 0  9992
2 41459  98.1724 339.2357 0172897 227.3031 131.3529 15.03570802 81554
AAUSAT 4                
1 41460U 16025E   17294.38594021  .00002569  00000-0  13978-3 0  9997
2 41460  98.1675 339.2696 0164373 225.2881 133.4847 15.04664504 81568
NUSAT 1 (LO-87)         
1 41557U 16033B   17294.26869140  .00002359  00000-0  90151-4 0  9993
2 41557  97.4556  13.7656 0012450 283.5114  76.4738 15.27563142 77672
BEESAT-4                
1 41619U 16040W   17293.12542111  .00002111  00000-0  97401-4 0  9991
2 41619  97.4492 354.2484 0011628 359.7651   0.3577 15.21292521 61584
PRATHAM                 
1 41783U 16059A   17294.15435544  .00000117  00000-0  32067-4 0  9999
2 41783  98.1529 354.1312 0034756 124.7710 235.6772 14.62870334 57018
ALSAT 1N                
1 41789U 16059G   17294.38015252  .00000142  00000-0  36141-4 0  9995
2 41789  98.1537 355.1006 0029675 116.9198 243.5042 14.64089651 57071
NAYIF-1 (EO-88)         
1 42017U 17008BX  17293.84175600  .00002557  00000-0  10995-3 0  9999
2 42017  97.4815 354.9978 0007827 132.3795 227.8106 15.23554762 37612
LILACSAT-1              
1 42725U 98067ME  17294.55414905  .00021089  00000-0  26905-3 0  9991
2 42725  51.6372 125.8209 0005431  71.0982 289.0599 15.59228620 23167
MAX VALIER SAT          
1 42778U 17036P   17294.17787741  .00001619  00000-0  76648-4 0  9992
2 42778  97.4379 352.4649 0012903 179.4266 180.6987 15.20711732 18177
